OBJECT_NAME,OBJECT_ID,EPOCH,MEAN_MOTION,ECCENTRICITY,INCLINATION,RA_OF_ASC_NODE,ARG_OF_PERICENTER,MEAN_ANOMALY,EPHEMERIS_TYPE,CLASSIFICATION_TYPE,NORAD_CAT_ID,ELEMENT_SET_NO,REV_AT_EPOCH,BSTAR,MEAN_MOTION_DOT,MEAN_MOTION_DDOT
FORMOSAT 7-3,2019-036E,2026-05-18T23:17:17.579040,15.09557168,.00004779,24.0002,19.5896,314.2829,45.7636,0,U,44343,999,37882,.16999695E-3,.3145E-4,0
FORMOSAT 7-1,2019-036L,2026-05-19T08:59:01.050144,14.96373700,.0000695,23.9971,226.6242,170.4104,189.6410,0,U,44349,999,38033,.10994E-3,.1578E-4,0
FORMOSAT 7-4,2019-036M,2026-05-19T11:07:16.698144,14.96368577,.000089,23.9986,288.1283,200.4336,159.6130,0,U,44350,999,37976,.12054E-3,.17E-4,0
FORMOSAT 7-2,2019-036N,2026-05-18T16:27:11.431008,14.96363440,.00005151,23.9993,347.6836,183.0694,176.9804,0,U,44351,999,37916,.12431031E-3,.1744E-4,0
FORMOSAT 7-6,2019-036Q,2026-05-19T08:27:16.992000,14.96373765,.0001407,23.9962,164.0066,117.5490,242.5154,0,U,44353,999,37749,.97371E-4,.1432E-4,0
FORMOSAT 7-5,2019-036V,2026-05-19T04:42:37.005696,14.96373817,.00004383,23.9979,103.8060,162.6424,197.4091,0,U,44358,999,37800,.11050825E-3,.1584E-4,0
METEOR-M2 2,2019-038A,2026-05-19T12:20:01.550112,14.24357825,.0002375,98.9136,126.3784,92.3586,267.7864,0,U,44387,999,35721,.13444E-3,.265E-5,0
GLOBAL-4,2019-054E,2026-05-18T22:22:58.435392,15.61434962,.00041469,45.0079,44.8248,157.4479,202.6601,0,U,44499,999,37578,.39118746E-3,.33991E-3,0
ZY-1 02D,2019-059A,2026-05-19T11:46:13.321344,14.35450099,.000128,98.3201,201.9885,151.0693,209.0565,0,U,44528,999,35022,.53966E-4,.113E-5,0
TAURUS-1 (JINNIUZUO 1),2019-059C,2026-05-19T11:42:35.316000,14.71753501,.0009082,98.6398,302.5459,50.2340,309.9664,0,U,44530,999,35442,.79851E-3,.4933E-4,0
ZHUHAI-1 03B,2019-060C,2026-05-19T12:21:01.207584,15.52373509,.0009388,97.5508,295.7758,67.9359,292.2890,0,U,44536,999,37187,.3158E-3,.19205E-3,0
ZHUHAI-1 03C,2019-060D,2026-05-19T11:43:23.685312,15.99175921,.0005997,97.5419,308.7603,295.1040,64.9615,0,U,44537,999,37267,.8353E-3,.403975E-2,.70885E-4
ZHUHAI-1 03D,2019-060E,2026-05-19T11:23:15.604224,15.48001851,.0007832,97.5367,288.1079,55.4861,304.7127,0,U,44538,999,37163,.36987E-3,.19277E-3,0
ZHUHAI-1 03E,2019-060F,2026-05-19T12:49:01.994304,15.40042878,.0007227,97.5584,288.5163,122.5943,237.6001,0,U,44539,999,37135,.27043E-3,.10728E-3,0
GAOFEN-7,2019-072A,2026-05-19T12:34:32.894112,15.21353970,.001789,97.2440,202.0649,132.8159,227.4585,0,U,44703,999,36328,.11648E-3,.2553E-4,0
JILIN-1 GAOFEN 2A,2019-075A,2026-05-19T12:35:20.943744,15.38462043,.0006887,97.4964,222.6636,172.9194,187.2149,0,U,44777,999,36047,.26536E-3,.9993E-4,0
NINGXIA-1 1,2019-076A,2026-05-19T12:51:40.057056,14.02035875,.001077,45.0064,307.8892,19.5737,340.5508,0,U,44779,999,33383,.29951E-4,-.84E-6,0
NINGXIA-1 5,2019-076E,2026-05-19T13:12:12.999744,14.02084243,.0010733,45.0062,307.1784,9.0788,351.0239,0,U,44783,999,33375,.40428E-4,-.68E-6,0
KL-ALPHA A,2019-077A,2026-05-19T13:32:26.715840,13.56039886,.0010979,88.9268,225.6917,181.4205,178.6920,0,U,44785,999,32185,.16443E-3,.127E-5,0
CARTOSAT-3,2019-081A,2026-05-19T12:09:43.975872,15.19229946,.0011202,97.4318,201.8308,248.7397,111.2642,0,U,44804,999,35911,.16383E-3,.3387E-4,0
JILIN-1 GAOFEN 2B,2019-086A,2026-05-19T12:29:41.169696,15.20350758,.0015445,97.4887,211.6976,64.1303,296.1522,0,U,44836,999,35613,.18539E-3,.3976E-4,0
TIANQIN 1 (CAS-6),2019-093A,2026-05-19T12:23:47.772096,14.95279119,.0012322,97.7804,223.5671,142.9228,217.2846,0,U,44879,999,34776,.21832E-3,.2349E-4,0
ETRSS-1,2019-093B,2026-05-19T12:45:10.000800,14.95691115,.0012464,97.7829,224.0170,142.6023,217.6068,0,U,44880,999,34777,.22726E-3,.2474E-4,0
TIANYAN 01,2019-093C,2026-05-19T12:05:16.905696,14.86468626,.0013582,97.7539,212.4345,174.7603,185.3758,0,U,44881,999,34715,.11468E-3,.962E-5,0
TIANYAN 02,2019-093D,2026-05-19T12:44:19.480128,15.04826666,.0015333,97.7928,234.0571,119.1854,241.0908,0,U,44882,999,34830,.29334E-3,.409E-4,0
CBERS 4A,2019-093E,2026-05-19T19:00:51.181920,14.81604314,.0000182,97.7512,207.9403,282.9967,77.1225,0,U,44883,999,34687,.70941E-4,.507E-5,0
WEILAI 1R,2019-093F,2026-05-19T12:18:54.311904,15.00364366,.0016125,97.7836,229.3667,123.9734,236.3025,0,U,44884,999,34812,.23E-3,.2834E-4,0
FLORIPASAT-1,2019-093G,2026-05-19T09:53:16.153728,15.03526200,.0012253,97.7900,233.4396,163.6419,196.5204,0,U,44885,999,34832,.34718E-3,.4682E-4,0
