FORMOSAT 7-3            
1 44343U 19036E   26138.97034235  .00003145  00000+0  17000-3 0  9993
2 44343  24.0002  19.5896 0000477 314.2829  45.7636 15.09557168378829
FORMOSAT 7-1            
1 44349U 19036L   26139.37431771  .00001578  00000+0  10994-3 0  9993
2 44349  23.9971 226.6242 0000695 170.4104 189.6410 14.96373700380334
FORMOSAT 7-4            
1 44350U 19036M   26139.46338771  .00001700  00000+0  12054-3 0  9997
2 44350  23.9986 288.1283 0000890 200.4336 159.6130 14.96368577379765
FORMOSAT 7-2            
1 44351U 19036N   26138.68554897  .00001744  00000+0  12431-3 0  9997
2 44351  23.9993 347.6836 0000515 183.0694 176.9804 14.96363440379164
FORMOSAT 7-6            
1 44353U 19036Q   26139.35228000  .00001432  00000+0  97371-4 0  9999
2 44353  23.9962 164.0066 0001407 117.5490 242.5154 14.96373765377498
FORMOSAT 7-5            
1 44358U 19036V   26139.19626164  .00001584  00000+0  11051-3 0  9997
2 44358  23.9979 103.8060 0000438 162.6424 197.4091 14.96373817378001
METEOR-M2 2             
1 44387U 19038A   26139.51390683  .00000265  00000+0  13444-3 0  9994
2 44387  98.9136 126.3784 0002375  92.3586 267.7864 14.24357825357214
GLOBAL-4                
1 44499U 19054E   26138.93262078  .00033991  00000+0  39119-3 0  9996
2 44499  45.0079  44.8248 0004146 157.4479 202.6601 15.61434962375787
ZY-1 02D                
1 44528U 19059A   26139.49043196  .00000113  00000+0  53966-4 0  9991
2 44528  98.3201 201.9885 0001280 151.0693 209.0565 14.35450099350226
TAURUS-1 (JINNIUZUO 1)  
1 44530U 19059C   26139.48790875  .00004933  00000+0  79851-3 0  9990
2 44530  98.6398 302.5459 0009082  50.2340 309.9664 14.71753501354421
ZHUHAI-1 03B            
1 44536U 19060C   26139.51459731  .00019205  00000+0  31580-3 0  9990
2 44536  97.5508 295.7758 0009388  67.9359 292.2890 15.52373509371876
ZHUHAI-1 03C            
1 44537U 19060D   26139.48846858  .00403975  70885-4  83530-3 0  9993
2 44537  97.5419 308.7603 0005997 295.1040  64.9615 15.99175921372673
ZHUHAI-1 03D            
1 44538U 19060E   26139.47448616  .00019277  00000+0  36987-3 0  9992
2 44538  97.5367 288.1079 0007832  55.4861 304.7127 15.48001851371634
ZHUHAI-1 03E            
1 44539U 19060F   26139.53405086  .00010728  00000+0  27043-3 0  9999
2 44539  97.5584 288.5163 0007227 122.5943 237.6001 15.40042878371359
GAOFEN-7                
1 44703U 19072A   26139.52399183  .00002553  00000+0  11648-3 0  9995
2 44703  97.2440 202.0649 0017890 132.8159 227.4585 15.21353970363284
JILIN-1 GAOFEN 2A       
1 44777U 19075A   26139.52454796  .00009993  00000+0  26536-3 0  9998
2 44777  97.4964 222.6636 0006887 172.9194 187.2149 15.38462043360477
NINGXIA-1 1             
1 44779U 19076A   26139.53588029 -.00000084  00000+0  29951-4 0  9997
2 44779  45.0064 307.8892 0010770  19.5737 340.5508 14.02035875333836
NINGXIA-1 5             
1 44783U 19076E   26139.55015046 -.00000068  00000+0  40428-4 0  9992
2 44783  45.0062 307.1784 0010733   9.0788 351.0239 14.02084243333753
KL-ALPHA A              
1 44785U 19077A   26139.56419810  .00000127  00000+0  16443-3 0  9997
2 44785  88.9268 225.6917 0010979 181.4205 178.6920 13.56039886321851
CARTOSAT-3              
1 44804U 19081A   26139.50675898  .00003387  00000+0  16383-3 0  9992
2 44804  97.4318 201.8308 0011202 248.7397 111.2642 15.19229946359116
JILIN-1 GAOFEN 2B       
1 44836U 19086A   26139.52061539  .00003976  00000+0  18539-3 0  9994
2 44836  97.4887 211.6976 0015445  64.1303 296.1522 15.20350758356139
TIANQIN 1 (CAS-6)       
1 44879U 19093A   26139.51652514  .00002349  00000+0  21832-3 0  9990
2 44879  97.7804 223.5671 0012322 142.9228 217.2846 14.95279119347768
ETRSS-1                 
1 44880U 19093B   26139.53136575  .00002474  00000+0  22726-3 0  9990
2 44880  97.7829 224.0170 0012464 142.6023 217.6068 14.95691115347779
TIANYAN 01              
1 44881U 19093C   26139.50366789  .00000962  00000+0  11468-3 0  9991
2 44881  97.7539 212.4345 0013582 174.7603 185.3758 14.86468626347153
TIANYAN 02              
1 44882U 19093D   26139.53078102  .00004090  00000+0  29334-3 0  9991
2 44882  97.7928 234.0571 0015333 119.1854 241.0908 15.04826666348302
CBERS 4A                
1 44883U 19093E   26139.79225905  .00000507  00000+0  70941-4 0  9995
2 44883  97.7512 207.9403 0000182 282.9967  77.1225 14.81604314346873
WEILAI 1R               
1 44884U 19093F   26139.51312861  .00002834  00000+0  23000-3 0  9992
2 44884  97.7836 229.3667 0016125 123.9734 236.3025 15.00364366348122
FLORIPASAT-1            
1 44885U 19093G   26139.41199252  .00004682  00000+0  34718-3 0  9990
2 44885  97.7900 233.4396 0012253 163.6419 196.5204 15.03526200348327
